ONEWEB-0050             
1 45453U 20020AF  25305.38635060  .00003569  00000+0  37564-3 0  9991
2 45453  88.9186 264.2932 0005920  80.0832 280.1065 14.89183629306460
ONEWEB-0034             
1 45454U 20020AG  25305.60851888 -.00000258  00000+0 -76373-3 0  9990
2 45454  87.8855  66.3728 0001688 100.7306 259.4012 13.11420805272769
ONEWEB-0060             
1 45455U 20020AH  25305.35082308  .00000020  00000+0  20651-4 0  9990
2 45455  87.8843  66.4461 0001841 136.9748 223.1524 13.11414068272685
ONEWEB-0086             
1 45456U 20020AJ  25305.63481839  .00000617  00000+0  17056-2 0  9999
2 45456  87.8852  66.3641 0002257 116.8414 243.2945 13.11419420272782
ONEWEB-0088             
1 45457U 20020AK  25305.61278002 -.00000126  00000+0 -39149-3 0  9999
2 45457  87.8864  66.3196 0001534  99.7267 260.4035 13.11420835272719
ONEWEB-0102             
1 47258U 20100A   25305.49060798  .00000241  00000+0  63399-3 0  9996
2 47258  87.8976  35.9197 0001930  98.6962 261.4385 13.12440951234862
ONEWEB-0109             
1 47259U 20100B   25305.49871028 -.00000074  00000+0 -24183-3 0  9997
2 47259  87.8970  35.8857 0001877 100.4749 259.6591 13.12441142234696
ONEWEB-0110             
1 47260U 20100C   25305.29595551 -.00000240  00000+0 -70174-3 0  9997
2 47260  87.8970  35.9094 0001926 109.3711 250.7626 13.12444311234832
ONEWEB-0111             
1 47261U 20100D   25305.55548376  .00000534  00000+0  14485-2 0  9996
2 47261  87.8973  35.8757 0001829 101.6646 258.4688 13.12445030234703
ONEWEB-0114             
1 47262U 20100E   25305.51006948 -.00000438  00000+0 -12524-2 0  9994
2 47262  87.8972  35.8787 0001889  93.3680 266.7664 13.12442232234658
ONEWEB-0117             
1 47263U 20100F   25305.50195296 -.00000170  00000+0 -50904-3 0  9997
2 47263  87.8973  35.8787 0001772 102.9689 257.1637 13.12440593234660
ONEWEB-0118             
1 47264U 20100G   25305.30569265  .00000047  00000+0  96490-4 0  9999
2 47264  87.8974  35.9166 0001714  90.1545 269.9780 13.12443437234838
ONEWEB-0119             
1 47265U 20100H   25305.48574103  .00000335  00000+0  89672-3 0  9999
2 47265  87.8973  35.9177 0001831 102.3924 257.7410 13.12441262234836
ONEWEB-0120             
1 47266U 20100J   25305.50858659 -.00000309  00000+0 -89461-3 0  9993
2 47266  87.8963  35.9152 0001846  98.0829 262.0509 13.12443539234860
ONEWEB-0121             
1 47267U 20100K   25305.49708947  .00000038  00000+0  71578-4 0  9994
2 47267  87.8968  35.8830 0001841 107.2285 252.9046 13.12440623234777
ONEWEB-0122             
1 47268U 20100L   25305.49209149  .00000162  00000+0  41559-3 0  9998
2 47268  87.8970  35.8871 0001929 102.8862 257.2482 13.12440377234683
