[{"OBJECT_NAME":"ONEWEB-0050","OBJECT_ID":"2020-020AF","EPOCH":"2025-11-01T09:16:20.691840","MEAN_MOTION":14.89183629,"ECCENTRICITY":0.00059203,"INCLINATION":88.9186,"RA_OF_ASC_NODE":264.2932,"ARG_OF_PERICENTER":80.0832,"MEAN_ANOMALY":280.1065,"EPHEMERIS_TYPE":0,"CLASSIFICATION_TYPE":"U","NORAD_CAT_ID":45453,"ELEMENT_SET_NO":999,"REV_AT_EPOCH":30646,"BSTAR":0.00037563929,"MEAN_MOTION_DOT":3.569e-5,"MEAN_MOTION_DDOT":0},{"OBJECT_NAME":"ONEWEB-0034","OBJECT_ID":"2020-020AG","EPOCH":"2025-11-01T14:36:16.031232","MEAN_MOTION":13.11420805,"ECCENTRICITY":0.0001688,"INCLINATION":87.8855,"RA_OF_ASC_NODE":66.3728,"ARG_OF_PERICENTER":100.7306,"MEAN_ANOMALY":259.4012,"EPHEMERIS_TYPE":0,"CLASSIFICATION_TYPE":"U","NORAD_CAT_ID":45454,"ELEMENT_SET_NO":999,"REV_AT_EPOCH":27276,"BSTAR":-0.00076373281,"MEAN_MOTION_DOT":-2.58e-6,"MEAN_MOTION_DDOT":0},{"OBJECT_NAME":"ONEWEB-0060","OBJECT_ID":"2020-020AH","EPOCH":"2025-11-01T08:25:11.114112","MEAN_MOTION":13.11414068,"ECCENTRICITY":0.0001841,"INCLINATION":87.8843,"RA_OF_ASC_NODE":66.4461,"ARG_OF_PERICENTER":136.9748,"MEAN_ANOMALY":223.1524,"EPHEMERIS_TYPE":0,"CLASSIFICATION_TYPE":"U","NORAD_CAT_ID":45455,"ELEMENT_SET_NO":999,"REV_AT_EPOCH":27268,"BSTAR":2.0651116e-5,"MEAN_MOTION_DOT":2.0e-7,"MEAN_MOTION_DDOT":0},{"OBJECT_NAME":"ONEWEB-0086","OBJECT_ID":"2020-020AJ","EPOCH":"2025-11-01T15:14:08.308896","MEAN_MOTION":13.1141942,"ECCENTRICITY":0.00022571,"INCLINATION":87.8852,"RA_OF_ASC_NODE":66.3641,"ARG_OF_PERICENTER":116.8414,"MEAN_ANOMALY":243.2945,"EPHEMERIS_TYPE":0,"CLASSIFICATION_TYPE":"U","NORAD_CAT_ID":45456,"ELEMENT_SET_NO":999,"REV_AT_EPOCH":27278,"BSTAR":0.0017056436,"MEAN_MOTION_DOT":6.17e-6,"MEAN_MOTION_DDOT":0},{"OBJECT_NAME":"ONEWEB-0088","OBJECT_ID":"2020-020AK","EPOCH":"2025-11-01T14:42:24.193728","MEAN_MOTION":13.11420835,"ECCENTRICITY":0.00015349,"INCLINATION":87.8864,"RA_OF_ASC_NODE":66.3196,"ARG_OF_PERICENTER":99.7267,"MEAN_ANOMALY":260.4035,"EPHEMERIS_TYPE":0,"CLASSIFICATION_TYPE":"U","NORAD_CAT_ID":45457,"ELEMENT_SET_NO":999,"REV_AT_EPOCH":27271,"BSTAR":-0.00039148984,"MEAN_MOTION_DOT":-1.26e-6,"MEAN_MOTION_DDOT":0},{"OBJECT_NAME":"ONEWEB-0102","OBJECT_ID":"2020-100A","EPOCH":"2025-11-01T11:46:28.529472","MEAN_MOTION":13.12440951,"ECCENTRICITY":0.00019301,"INCLINATION":87.8976,"RA_OF_ASC_NODE":35.9197,"ARG_OF_PERICENTER":98.6962,"MEAN_ANOMALY":261.4385,"EPHEMERIS_TYPE":0,"CLASSIFICATION_TYPE":"U","NORAD_CAT_ID":47258,"ELEMENT_SET_NO":999,"REV_AT_EPOCH":23486,"BSTAR":0.00063399331,"MEAN_MOTION_DOT":2.41e-6,"MEAN_MOTION_DDOT":0},{"OBJECT_NAME":"ONEWEB-0109","OBJECT_ID":"2020-100B","EPOCH":"2025-11-01T11:58:08.568192","MEAN_MOTION":13.12441142,"ECCENTRICITY":0.00018774,"INCLINATION":87.897,"RA_OF_ASC_NODE":35.8857,"ARG_OF_PERICENTER":100.4749,"MEAN_ANOMALY":259.6591,"EPHEMERIS_TYPE":0,"CLASSIFICATION_TYPE":"U","NORAD_CAT_ID":47259,"ELEMENT_SET_NO":999,"REV_AT_EPOCH":23469,"BSTAR":-0.00024183291,"MEAN_MOTION_DOT":-7.4e-7,"MEAN_MOTION_DDOT":0},{"OBJECT_NAME":"ONEWEB-0110","OBJECT_ID":"2020-100C","EPOCH":"2025-11-01T07:06:10.556064","MEAN_MOTION":13.12444311,"ECCENTRICITY":0.00019261,"INCLINATION":87.897,"RA_OF_ASC_NODE":35.9094,"ARG_OF_PERICENTER":109.3711,"MEAN_ANOMALY":250.7626,"EPHEMERIS_TYPE":0,"CLASSIFICATION_TYPE":"U","NORAD_CAT_ID":47260,"ELEMENT_SET_NO":999,"REV_AT_EPOCH":23483,"BSTAR":-0.00070174277,"MEAN_MOTION_DOT":-2.4e-6,"MEAN_MOTION_DDOT":0},{"OBJECT_NAME":"ONEWEB-0111","OBJECT_ID":"2020-100D","EPOCH":"2025-11-01T13:19:53.796864","MEAN_MOTION":13.1244503,"ECCENTRICITY":0.00018299,"INCLINATION":87.8973,"RA_OF_ASC_NODE":35.8757,"ARG_OF_PERICENTER":101.6646,"MEAN_ANOMALY":258.4688,"EPHEMERIS_TYPE":0,"CLASSIFICATION_TYPE":"U","NORAD_CAT_ID":47261,"ELEMENT_SET_NO":999,"REV_AT_EPOCH":23470,"BSTAR":0.0014484621,"MEAN_MOTION_DOT":5.34e-6,"MEAN_MOTION_DDOT":0},{"OBJECT_NAME":"ONEWEB-0114","OBJECT_ID":"2020-100E","EPOCH":"2025-11-01T12:14:30.003072","MEAN_MOTION":13.12442232,"ECCENTRICITY":0.0001889,"INCLINATION":87.8972,"RA_OF_ASC_NODE":35.8787,"ARG_OF_PERICENTER":93.368,"MEAN_ANOMALY":266.7664,"EPHEMERIS_TYPE":0,"CLASSIFICATION_TYPE":"U","NORAD_CAT_ID":47262,"ELEMENT_SET_NO":999,"REV_AT_EPOCH":23465,"BSTAR":-0.0012523605,"MEAN_MOTION_DOT":-4.38e-6,"MEAN_MOTION_DDOT":0},{"OBJECT_NAME":"ONEWEB-0117","OBJECT_ID":"2020-100F","EPOCH":"2025-11-01T12:02:48.735744","MEAN_MOTION":13.12440593,"ECCENTRICITY":0.00017725,"INCLINATION":87.8973,"RA_OF_ASC_NODE":35.8787,"ARG_OF_PERICENTER":102.9689,"MEAN_ANOMALY":257.1637,"EPHEMERIS_TYPE":0,"CLASSIFICATION_TYPE":"U","NORAD_CAT_ID":47263,"ELEMENT_SET_NO":999,"REV_AT_EPOCH":23466,"BSTAR":-0.00050903975,"MEAN_MOTION_DOT":-1.7e-6,"MEAN_MOTION_DDOT":0},{"OBJECT_NAME":"ONEWEB-0118","OBJECT_ID":"2020-100G","EPOCH":"2025-11-01T07:20:11.844960","MEAN_MOTION":13.12443437,"ECCENTRICITY":0.00017145,"INCLINATION":87.8974,"RA_OF_ASC_NODE":35.9166,"ARG_OF_PERICENTER":90.1545,"MEAN_ANOMALY":269.978,"EPHEMERIS_TYPE":0,"CLASSIFICATION_TYPE":"U","NORAD_CAT_ID":47264,"ELEMENT_SET_NO":999,"REV_AT_EPOCH":23483,"BSTAR":9.6490417e-5,"MEAN_MOTION_DOT":4.7e-7,"MEAN_MOTION_DDOT":0},{"OBJECT_NAME":"ONEWEB-0119","OBJECT_ID":"2020-100H","EPOCH":"2025-11-01T11:39:28.024992","MEAN_MOTION":13.12441262,"ECCENTRICITY":0.00018312,"INCLINATION":87.8973,"RA_OF_ASC_NODE":35.9177,"ARG_OF_PERICENTER":102.3924,"MEAN_ANOMALY":257.741,"EPHEMERIS_TYPE":0,"CLASSIFICATION_TYPE":"U","NORAD_CAT_ID":47265,"ELEMENT_SET_NO":999,"REV_AT_EPOCH":23483,"BSTAR":0.00089671763,"MEAN_MOTION_DOT":3.35e-6,"MEAN_MOTION_DDOT":0},{"OBJECT_NAME":"ONEWEB-0120","OBJECT_ID":"2020-100J","EPOCH":"2025-11-01T12:12:21.881376","MEAN_MOTION":13.12443539,"ECCENTRICITY":0.00018466,"INCLINATION":87.8963,"RA_OF_ASC_NODE":35.9152,"ARG_OF_PERICENTER":98.0829,"MEAN_ANOMALY":262.0509,"EPHEMERIS_TYPE":0,"CLASSIFICATION_TYPE":"U","NORAD_CAT_ID":47266,"ELEMENT_SET_NO":999,"REV_AT_EPOCH":23486,"BSTAR":-0.00089461314,"MEAN_MOTION_DOT":-3.09e-6,"MEAN_MOTION_DDOT":0},{"OBJECT_NAME":"ONEWEB-0121","OBJECT_ID":"2020-100K","EPOCH":"2025-11-01T11:55:48.530208","MEAN_MOTION":13.12440623,"ECCENTRICITY":0.00018412,"INCLINATION":87.8968,"RA_OF_ASC_NODE":35.883,"ARG_OF_PERICENTER":107.2285,"MEAN_ANOMALY":252.9046,"EPHEMERIS_TYPE":0,"CLASSIFICATION_TYPE":"U","NORAD_CAT_ID":47267,"ELEMENT_SET_NO":999,"REV_AT_EPOCH":23477,"BSTAR":7.1577904e-5,"MEAN_MOTION_DOT":3.8e-7,"MEAN_MOTION_DDOT":0},{"OBJECT_NAME":"ONEWEB-0122","OBJECT_ID":"2020-100L","EPOCH":"2025-11-01T11:48:36.704736","MEAN_MOTION":13.12440377,"ECCENTRICITY":0.00019296,"INCLINATION":87.897,"RA_OF_ASC_NODE":35.8871,"ARG_OF_PERICENTER":102.8862,"MEAN_ANOMALY":257.2482,"EPHEMERIS_TYPE":0,"CLASSIFICATION_TYPE":"U","NORAD_CAT_ID":47268,"ELEMENT_SET_NO":999,"REV_AT_EPOCH":23468,"BSTAR":0.0004155877,"MEAN_MOTION_DOT":1.62e-6,"MEAN_MOTION_DDOT":0}]
